[
  {
    "placeImage": "images/zereshkpolo.jpg",
    "placeName": "Zereshk-Polo Morgh",
    "placeItems": ["Rice, Barberry, Chicken, Saffron, Turmeric, Tomato Paste"],
    "placeCommon" : "Order To Enjoy ..."
  },
  {
    "placeImage": "images/ghorme.jpg",
    "placeName": "Ghormeh Sabzi",
    "placeItems": ["Rice, Saffron, Special Green Herbs, Meat, Kidney Beans"],
    "placeCommon" : "Order To Enjoy ..."
  },
  {
    "placeImage": "images/loobiapolo.jpg",
    "placeName": "Loobia-Polo",
    "placeItems": ["Rice, Green Beans, Beef, Turmeric, Saffron, Cinnamon, Tomato Paste"],
    "placeCommon" : "Order To Enjoy ..."
  },
  {
    "placeImage": "images/baghalipolo.jpg",
    "placeName": "Baghali-Polo",
    "placeItems": ["Rice, Saffron, Dill, Broad Beans, Lam Shank or Chicken, Cinnamon"],
    "placeCommon" : "Order To Enjoy ..."
  },
  {
    "placeImage": "images/gheime.jpg",
    "placeName": "Gheimeh",
    "placeItems": ["Rice, Saffron, Yellow Split Peas, Tomato, Lamb, Dried Lime, Fries"],
    "placeCommon" : "Order To Enjoy ..."
  },
  {
    "placeImage": "images/kabab.jpg",
    "placeName": "Kabab Tabei",
    "placeItems": ["Rice, Saffron, Minced Beef, Minced Onion, Tomato"],
    "placeCommon" : "Order To Enjoy ..."
  },
  {
    "placeImage": "images/adaspolo.jpg",
    "placeName": "Adas-Polo",
    "placeItems": ["Rice, Saffron, Lentil, Onion, Raisin, Minced Beef or Chicken"],
    "placeCommon" : "Order To Enjoy ..."
  },
  {
    "placeImage": "images/karafs.jpg",
    "placeName": "Khoresh Karafs",
    "placeItems": ["Rice, Saffron, Celery, Parsley, Mint, Meat"],
    "placeCommon" : "Order To Enjoy ..."
  },
  {
    "placeImage": "images/curry.jpg",
    "placeName": "Chicken Curry",
    "placeItems": ["Chicken, Cream, Coriander, Yellow, Curry, Rice"],
    "placeCommon" : "Order To Enjoy ..."
  },
  {
    "placeImage": "images/gheimebademjoon.jpg",
    "placeName": "Khoresh Bademjan",
    "placeItems": ["Tomato, Eggplant, Lamb or Beef, Rice, Saffron"],
    "placeCommon" : "Order To Enjoy ..."
  },
  {
    "placeImage": "images/fesenjoon.jpg",
    "placeName": "Khoresh Fesenjan",
    "placeItems": ["Walnut, Chicken or Meat Ball, Pomegranate, Rice, Saffron"],
    "placeCommon" : "Order To Enjoy ..."
  },
  {
    "placeImage": "images/kookoosabzi.jpg",
    "placeName": "Kookoo-Sabzi",
    "placeItems": ["Special Herbs, Egg"],
    "placeCommon" : "Order To Enjoy ..."
  },
  {
    "placeImage": "images/mirzaghasemi.jpg",
    "placeName": "Mirza-Ghasemi",
    "placeItems": ["Aubergine, Egg, Tomato, Garlic"],
    "placeCommon" : "Order To Enjoy ..."
  },
  {
    "placeImage": "images/kashkbademjoon.jpg",
    "placeName": "Kashk-Bademjan",
    "placeItems": ["Eggplant, Garlic, Crispy Onion, Nuts, Mint, Kashk (Dairy Product)"],
    "placeCommon" : "Order To Enjoy ..."
  },
  {
    "placeImage": "images/ashreshte.jpg",
    "placeName": "Ash Reshteh",
    "placeItems": ["Herbs, Beans, Lentil, Noodles, Turmeric, Onion, Kashk (Dairy Product)"],
    "placeCommon" : "Order To Enjoy ..."
  },
  {
    "placeImage": "images/tahchin.jpg",
    "placeName": "Tah-Chin",
    "placeItems": ["Rice, Saffron, Egg, Yoghurt, Chicken, Barberry"],
    "placeCommon" : "Order To Enjoy ..."
  },
  {
    "placeImage": "images/soupjo.jpg",
    "placeName": "Soup Jo",
    "placeItems": ["Barley, Carrot, Onion, Parsley, Milk, Chicken"],
    "placeCommon" : "Order To Enjoy ..."
  },
  {
    "placeImage": "images/alooesfenaj.jpg",
    "placeName": "Khoresh-Aloo Esfenaj",
    "placeItems": ["Golden Prunes, Spinach, Meat, Rice, Saffron"],
    "placeCommon" : "Order To Enjoy ..."
  }
]